{"fetched_at":"2026-07-07T18:29:55.215Z","source":"https://celestrak.org/NORAD/elements/gp.php?NAME=UMBRA&FORMAT=JSON","constellation":"umbra","records":[{"OBJECT_NAME":"UMBRA-07","OBJECT_ID":"2023-174AT","EPOCH":"2026-07-07T03:03:27.457632","CLASSIFICATION_TYPE":"U","MEAN_MOTION":15.0952332,"ECCENTRICITY":0.0003125,"INCLINATION":97.3778,"RA_OF_ASC_NODE":243.1379,"ARG_OF_PERICENTER":41.8079,"MEAN_ANOMALY":318.3389,"EPHEMERIS_TYPE":0,"NORAD_CAT_ID":58297,"ELEMENT_SET_NO":999,"REV_AT_EPOCH":14642,"BSTAR":0.00039116,"MEAN_MOTION_DOT":0.00006214,"MEAN_MOTION_DDOT":0},{"OBJECT_NAME":"UMBRA-09","OBJECT_ID":"2024-149CB","EPOCH":"2026-07-06T23:17:11.863680","CLASSIFICATION_TYPE":"U","MEAN_MOTION":15.18679469,"ECCENTRICITY":0.0001613,"INCLINATION":97.6965,"RA_OF_ASC_NODE":275.5217,"ARG_OF_PERICENTER":218.3758,"MEAN_ANOMALY":141.7361,"EPHEMERIS_TYPE":0,"NORAD_CAT_ID":60541,"ELEMENT_SET_NO":999,"REV_AT_EPOCH":10372,"BSTAR":0.00044551,"MEAN_MOTION_DOT":0.0000917,"MEAN_MOTION_DDOT":0},{"OBJECT_NAME":"UMBRA-10","OBJECT_ID":"2024-149CH","EPOCH":"2026-07-07T05:36:04.557312","CLASSIFICATION_TYPE":"U","MEAN_MOTION":15.18689224,"ECCENTRICITY":0.0001057,"INCLINATION":97.6972,"RA_OF_ASC_NODE":275.8195,"ARG_OF_PERICENTER":172.6667,"MEAN_ANOMALY":187.4582,"EPHEMERIS_TYPE":0,"NORAD_CAT_ID":60547,"ELEMENT_SET_NO":999,"REV_AT_EPOCH":10377,"BSTAR":0.00054143,"MEAN_MOTION_DOT":0.00011166,"MEAN_MOTION_DDOT":0},{"OBJECT_NAME":"UMBRA-11","OBJECT_ID":"2025-276CL","EPOCH":"2026-07-06T17:13:38.192160","CLASSIFICATION_TYPE":"U","MEAN_MOTION":15.27537312,"ECCENTRICITY":0.0001855,"INCLINATION":97.4185,"RA_OF_ASC_NODE":262.2363,"ARG_OF_PERICENTER":211.0304,"MEAN_ANOMALY":149.0826,"EPHEMERIS_TYPE":0,"NORAD_CAT_ID":66748,"ELEMENT_SET_NO":999,"REV_AT_EPOCH":3347,"BSTAR":0.00056939,"MEAN_MOTION_DOT":0.00015279,"MEAN_MOTION_DDOT":0},{"OBJECT_NAME":"UMBRA-12","OBJECT_ID":"2026-004J","EPOCH":"2026-07-06T23:50:15.542880","CLASSIFICATION_TYPE":"U","MEAN_MOTION":14.89487726,"ECCENTRICITY":0.0007776,"INCLINATION":97.802,"RA_OF_ASC_NODE":186.4899,"ARG_OF_PERICENTER":74.2591,"MEAN_ANOMALY":285.9483,"EPHEMERIS_TYPE":0,"NORAD_CAT_ID":67371,"ELEMENT_SET_NO":999,"REV_AT_EPOCH":2625,"BSTAR":0.0003392,"MEAN_MOTION_DOT":0.00003176,"MEAN_MOTION_DDOT":0}]}
