UMBRA-07                
1 58297U 23174AT  26188.12740113  .00006214  00000+0  39116-3 0  9997
2 58297  97.3778 243.1379 0003125  41.8079 318.3389 15.09523320146425
UMBRA-09                
1 60541U 24149CB  26187.97027620  .00009170  00000+0  44551-3 0  9991
2 60541  97.6965 275.5217 0001613 218.3758 141.7361 15.18679469103726
UMBRA-10                
1 60547U 24149CH  26188.23338608  .00011166  00000+0  54143-3 0  9994
2 60547  97.6972 275.8195 0001057 172.6667 187.4582 15.18689224103778
UMBRA-11                
1 66748U 25276CL  26187.71780315  .00015279  00000+0  56939-3 0  9997
2 66748  97.4185 262.2363 0001855 211.0304 149.0826 15.27537312 33474
UMBRA-12                
1 67371U 26004J   26187.99323545  .00003176  00000+0  33920-3 0  9996
2 67371  97.8020 186.4899 0007776  74.2591 285.9483 14.89487726 26252
